OBJECT_NAME,OBJECT_ID,EPOCH,MEAN_MOTION,ECCENTRICITY,INCLINATION,RA_OF_ASC_NODE,ARG_OF_PERICENTER,MEAN_ANOMALY,EPHEMERIS_TYPE,CLASSIFICATION_TYPE,NORAD_CAT_ID,ELEMENT_SET_NO,REV_AT_EPOCH,BSTAR,MEAN_MOTION_DOT,MEAN_MOTION_DDOT
MERIDIAN 10,2022-030A,2026-07-20T20:46:50.360160,2.00608707,.67934616,62.6768,137.1564,272.8364,17.5929,0,U,52145,999,3170,0,.136E-5,0
OMNI-L1,2022-033A,2026-07-21T11:01:09.820416,14.82858532,.00058339,97.8386,280.9713,158.8668,201.2788,0,U,52157,999,23253,.16050937E-3,.1248E-4,0
ENMAP,2022-033C,2026-07-21T15:04:24.071232,14.74943432,.00012458,97.9783,284.3872,85.2043,274.9308,0,U,52159,999,23173,.27124183E-4,.132E-5,0
ARCSAT-1,2022-033E,2026-07-21T06:04:32.940192,15.54375442,.00062376,97.2744,295.0513,81.0278,279.1682,0,U,52161,999,24099,.15984432E-3,.10383E-3,0
GLOBAL-18,2022-034B,2026-07-21T10:24:09.196992,15.47411705,.00046452,52.9813,92.8219,41.0913,319.0442,0,U,52196,999,24226,.38940399E-3,.19888E-3,0
GAOFEN-3 03,2022-035A,2026-07-21T15:23:14.108064,14.42218000,.00018045,98.4075,210.7226,86.1757,273.9639,0,U,52200,999,22581,-.19470319E-4,-.108E-5,0
DAQI-1,2022-039A,2026-07-21T14:29:38.882400,14.57693989,.00044372,98.1483,140.7453,131.2242,228.9340,0,U,52257,999,22695,.8348051E-5,-.7E-7,0
BRO-6,2022-047AE,2026-07-21T13:44:38.356224,15.52929005,.00029769,97.3380,294.3469,274.0163,86.0750,0,U,52422,999,23648,.67871854E-3,.42281E-3,0
JILIN-1 GAOFEN 3D27,2022-048B,2026-07-21T14:38:02.790528,15.84871925,.00056196,97.5719,319.9232,231.9813,128.0950,0,U,52444,999,23491,.87782349E-3,.208033E-2,0
JILIN-1 GAOFEN 3D28,2022-048C,2026-07-21T13:57:44.398368,15.90608828,.00058098,97.5667,320.2439,237.1350,122.9364,0,U,52445,999,23497,.90164482E-3,.276147E-2,.30249469E-4
VIGORIDE-3,2022-057AE,2026-07-21T08:20:38.062464,15.27589605,.00083555,97.6646,343.2435,14.5407,345.6070,0,U,52760,999,23037,.16091438E-3,.4265E-4,0
ION SCV-006,2022-057AF,2026-07-21T08:19:34.602528,15.46010850,.00162283,97.6139,352.6346,355.1196,4.9892,0,U,52761,999,23139,.19055744E-3,.9247E-4,0
SHERPA-AC1,2022-057AH,2026-07-21T09:18:35.804160,15.36685229,.00066477,97.6727,353.0591,340.7208,19.3783,0,U,52763,999,23095,.15690019E-3,.5537E-4,0
OMNI-L2,2022-057AR,2026-07-21T03:57:44.946720,14.81446893,.00061933,97.4696,262.2383,198.8621,161.2365,0,U,52771,999,22542,.11170213E-3,.827E-5,0
STEP CUBE LAB-II,2022-065D,2026-07-21T16:00:11.083680,14.63347960,.00072405,98.2275,346.4712,278.6036,81.4345,0,U,52897,999,21654,.73904027E-4,.333E-5,0
RANDEV,2022-065E,2026-07-21T15:48:34.875936,14.63737131,.00065634,98.2260,346.8302,279.3790,80.6670,0,U,52898,999,21629,.88423899E-4,.412E-5,0
SNUGLITE-II,2022-065F,2026-07-21T07:58:25.134240,14.64401284,.00061415,98.2245,347.1109,277.4072,82.6432,0,U,52899,999,21599,.12941875E-3,.636E-5,0
MIMAN,2022-065G,2026-07-21T08:09:37.286496,14.61875410,.00062894,98.2305,344.6588,280.9053,79.1440,0,U,52900,999,21543,.74223173E-4,.323E-5,0
STARLINK-4362,2022-077A,2026-07-21T10:12:18.586368,15.05655116,.00015273,97.2866,19.5299,101.7424,258.3975,0,U,53043,999,22103,.47485032E-4,.629E-5,0
LARES-2,2022-080A,2026-07-18T18:51:23.050944,6.38965084,.00054794,70.1539,294.4914,328.1411,31.8962,0,U,53105,999,9368,0,-.2E-6,0
GREENCUBE (IO-117),2022-080E,2026-07-21T06:26:53.364480,6.42583331,.0009377,70.1384,286.3946,282.6707,77.2904,0,U,53109,999,9425,0,-.3E-7,0
STARLINK-4410,2022-084R,2026-07-21T14:00:01.999872,15.36915501,.00013053,97.5989,264.9110,99.9704,57.0465,0,U,53204,999,566,.26660147E-2,.97266E-3,0
COSMOS 2558,2022-089A,2026-07-20T20:40:50.068704,15.82905343,.0004329,97.2232,307.4901,220.3966,139.6983,0,U,53323,999,22314,.5961E-3,.127495E-2,0
TECMS,2022-090A,2026-07-21T14:58:08.168160,15.21260799,.00053294,97.3118,269.7531,70.1080,290.0730,0,U,53346,999,22004,.12624978E-3,.2754E-4,0
DONGPO 02,2022-098J,2026-07-21T00:44:36.067200,15.82400617,.00046627,97.5554,336.3686,203.1848,156.9210,0,U,53452,999,22013,.67544536E-3,.14138E-2,0
DONGPO 01,2022-098K,2026-07-21T15:34:12.249696,15.79310280,.00028464,97.5617,337.4604,198.0368,162.0798,0,U,53453,999,22018,.70271932E-3,.127471E-2,0
STARLINK-4400,2022-099D,2026-07-21T08:06:44.314560,15.05649480,.00018845,97.2847,319.5275,128.5435,231.5962,0,U,53468,999,21608,.14896318E-3,.2094E-4,0
STARLINK-4621,2022-105AE,2026-07-21T14:33:30.288384,15.05653973,.0001853,97.2851,79.7978,95.1095,265.0344,0,U,53676,999,21338,.30192818E-4,.379E-5,0
