MERIDIAN 10             
1 52145U 22030A   26201.86586065  .00000136  00000+0  00000+0 0  9997
2 52145  62.6768 137.1564 6793461 272.8364  17.5929  2.00608707 31703
OMNI-L1                 
1 52157U 22033A   26202.45914144  .00001248  00000+0  16051-3 0  9994
2 52157  97.8386 280.9713 0005833 158.8668 201.2788 14.82858532232533
ENMAP                   
1 52159U 22033C   26202.62805638  .00000132  00000+0  27124-4 0  9997
2 52159  97.9783 284.3872 0001245  85.2043 274.9308 14.74943432231735
ARCSAT-1                
1 52161U 22033E   26202.25315903  .00010383  00000+0  15984-3 0  9999
2 52161  97.2744 295.0513 0006237  81.0278 279.1682 15.54375442240998
GLOBAL-18               
1 52196U 22034B   26202.43343978  .00019888  00000+0  38940-3 0  9997
2 52196  52.9813  92.8219 0004645  41.0913 319.0442 15.47411705242265
GAOFEN-3 03             
1 52200U 22035A   26202.64113551 -.00000108  00000+0 -19470-4 0  9994
2 52200  98.4075 210.7226 0001804  86.1757 273.9639 14.42218000225810
DAQI-1                  
1 52257U 22039A   26202.60392225 -.00000007  00000+0  83481-5 0  9994
2 52257  98.1483 140.7453 0004437 131.2242 228.9340 14.57693989226956
BRO-6                   
1 52422U 22047AE  26202.57266616  .00042281  00000+0  67872-3 0  9990
2 52422  97.3380 294.3469 0002976 274.0163  86.0750 15.52929005236488
JILIN-1 GAOFEN 3D27     
1 52444U 22048B   26202.60975452  .00208033  00000+0  87782-3 0  9995
2 52444  97.5719 319.9232 0005619 231.9813 128.0950 15.84871925234910
JILIN-1 GAOFEN 3D28     
1 52445U 22048C   26202.58176387  .00276147  30249-4  90164-3 0  9995
2 52445  97.5667 320.2439 0005809 237.1350 122.9364 15.90608828234977
VIGORIDE-3              
1 52760U 22057AE  26202.34766276  .00004265  00000+0  16091-3 0  9995
2 52760  97.6646 343.2435 0008355  14.5407 345.6070 15.27589605230374
ION SCV-006             
1 52761U 22057AF  26202.34692827  .00009247  00000+0  19056-3 0  9995
2 52761  97.6139 352.6346 0016228 355.1196   4.9892 15.46010850231396
SHERPA-AC1              
1 52763U 22057AH  26202.38791440  .00005537  00000+0  15690-3 0  9990
2 52763  97.6727 353.0591 0006647 340.7208  19.3783 15.36685229230953
OMNI-L2                 
1 52771U 22057AR  26202.16510355  .00000827  00000+0  11170-3 0  9995
2 52771  97.4696 262.2383 0006193 198.8621 161.2365 14.81446893225422
STEP CUBE LAB-II        
1 52897U 22065D   26202.66679495  .00000333  00000+0  73904-4 0  9995
2 52897  98.2275 346.4712 0007240 278.6036  81.4345 14.63347960216544
RANDEV                  
1 52898U 22065E   26202.65873699  .00000412  00000+0  88424-4 0  9998
2 52898  98.2260 346.8302 0006563 279.3790  80.6670 14.63737131216297
SNUGLITE-II             
1 52899U 22065F   26202.33223535  .00000636  00000+0  12942-3 0  9991
2 52899  98.2245 347.1109 0006141 277.4072  82.6432 14.64401284215996
MIMAN                   
1 52900U 22065G   26202.34001489  .00000323  00000+0  74223-4 0  9991
2 52900  98.2305 344.6588 0006289 280.9053  79.1440 14.61875410215432
STARLINK-4362           
1 53043U 22077A   26202.42521512  .00000629  00000+0  47485-4 0  9995
2 53043  97.2866  19.5299 0001527 101.7424 258.3975 15.05655116221036
LARES-2                 
1 53105U 22080A   26199.78568346 -.00000020  00000+0  00000+0 0  9991
2 53105  70.1539 294.4914 0005479 328.1411  31.8962  6.38965084 93683
GREENCUBE (IO-117)      
1 53109U 22080E   26202.26867320 -.00000003  00000+0  00000+0 0  9998
2 53109  70.1384 286.3946 0009377 282.6707  77.2904  6.42583331 94253
STARLINK-4410           
1 53204U 22084R   26202.58335648  .00097266  00000+0  26660-2 0  9995
2 53204  97.5989 264.9110 0001305  99.9704  57.0465 15.36915501  5663
COSMOS 2558             
1 53323U 22089A   26201.86169061  .00127495  00000+0  59610-3 0  9996
2 53323  97.2232 307.4901 0004329 220.3966 139.6983 15.82905343223144
TECMS                   
1 53346U 22090A   26202.62370565  .00002754  00000+0  12625-3 0  9996
2 53346  97.3118 269.7531 0005329  70.1080 290.0730 15.21260799220041
DONGPO 02               
1 53452U 22098J   26202.03097300  .00141380  00000+0  67545-3 0  9990
2 53452  97.5554 336.3686 0004662 203.1848 156.9210 15.82400617220131
DONGPO 01               
1 53453U 22098K   26202.64875289  .00127471  00000+0  70272-3 0  9994
2 53453  97.5617 337.4604 0002846 198.0368 162.0798 15.79310280220181
STARLINK-4400           
1 53468U 22099D   26202.33801290  .00002094  00000+0  14896-3 0  9991
2 53468  97.2847 319.5275 0001884 128.5435 231.5962 15.05649480216083
STARLINK-4621           
1 53676U 22105AE  26202.60660056  .00000379  00000+0  30193-4 0  9996
2 53676  97.2851  79.7978 0001853  95.1095 265.0344 15.05653973213389
